FALCONSAT-6             
1 43815U 18099BK  26068.72544389  .00005029  00000+0  19477-3 0  9998
2 43815  97.3865 145.8165 0014370 297.0944 181.0714 15.26532865398556
STARLINK-35836          
1 66571U 25268Q   26068.15612101  .00040369  00000+0  14684-2 0  9993
2 66571  43.0058 350.4695 0001791 280.5587  79.5063 15.27581175 17877
